satname,norad_id,inclination_deg,eccentricity,mean_motion_rev_per_day,perigee_km,apogee_km,l1,l2
STARLINK-1008,44714,53.0581,0.0001391,15.06396677,546.2584250723221,548.1850598744777,1 44714U 19074B   25360.72334786  .00001504  00000+0  11985-3 0  9993,2 44714  53.0581 154.1768 0001391  78.6103 281.5042 15.06396677337752
STARLINK-1012,44718,53.0562,0.000144,15.06395774,546.2272579924538,548.2217621073478,1 44718U 19074F   25360.43585328  .00001438  00000+0  11540-3 0  9998,2 44718  53.0562 155.4647 0001440  98.6163 261.4989 15.06395774337707
STARLINK-1017,44723,53.0482,0.0005459,15.18551473,506.45725793745623,513.9779635014411,1 44723U 19074L   25360.68207887  .00053558  00000+0  25566-2 0  9994,2 44723  53.0482 146.8195 0005459 124.6862 235.4648 15.18551473337858
STARLINK-1019,44724,53.0497,0.0003612,15.59314462,387.19542645913407,392.08446852600264,1 44724U 19074M   25360.91668980  .00133387  00000+0  16419-2 0  9992,2 44724  53.0497 136.6261 0003612 277.2400  39.8999 15.59314462  5989
STARLINK-1020,44725,53.0534,0.0001314,15.06398118,546.3073344447885,548.1273175616607,1 44725U 19074N   25360.76941957  .00001020  00000+0  87366-4 0  9993,2 44725  53.0534 173.9695 0001314  87.3629 272.7511 15.06398118337479
STARLINK-1031,44736,53.045,0.0001302,15.6319439,377.5569594298822,379.31637121233143,1 44736U 19074Z   25360.91668980  .00116788  00000+0  12415-2 0  9993,2 44736  53.0450 123.1016 0001302  99.8931 355.7978 15.63194390  5721
STARLINK-1036,44741,53.0556,0.000141,15.06397763,546.2419389161978,548.1948891429538,1 44741U 19074AE  25360.79891455  .00000199  00000+0  32257-4 0  9996,2 44741  53.0556 173.8358 0001410  94.2537 265.8613 15.06397763337480
STARLINK-1039,44744,53.0497,0.0003506,15.1572777,516.3519410873778,521.18805227345,1 44744U 19074AH  25360.82477044  .00024646  00000+0  12893-2 0  9992,2 44744  53.0497 188.4490 0003506  85.5278 274.6115 15.15727770337287
STARLINK-1042,44747,53.0458,0.0001719,15.45929607,427.47788846494586,429.8180611392836,1 44747U 19074AL  25360.56150736  .00021581  00000+0  44385-3 0  9999,2 44747  53.0458  84.6085 0001719 312.9092  47.1770 15.45929607338747
STARLINK-1043,44748,53.0539,0.0003448,15.46194675,425.52330529839764,430.2167277369881,1 44748U 19074AM  25360.68316543  .00116855  00000+0  23147-2 0  9994,2 44748  53.0539 184.9704 0003448 161.4881 198.6252 15.46194675337324
STARLINK-1046,44751,53.0543,6.02e-05,15.10664475,533.7561911283501,534.5884331695333,1 44751U 19074AQ  25360.91668980  .01716268  00000+0  93593-1 0  9995,2 44751  53.0543 193.2745 0000602  92.1977 275.0433 15.10664475  5779
STARLINK-1047,44752,53.0714,0.0002731,15.30688539,471.88551581706906,475.62802019315404,1 44752U 19074AR  25360.67522140  .00011395  00000+0  39036-3 0  9998,2 44752  53.0714 126.6191 0002731  19.7123 340.3982 15.30688539338153
STARLINK-1048,44753,53.0565,0.0001077,15.06407562,546.4425240507608,547.934239137956,1 44753U 19074AS  25360.67909971  .00002754  00000+0  20368-3 0  9997,2 44753  53.0565 154.3718 0001077  88.8574 271.2538 15.06407562337741
STARLINK-1053,44758,53.0378,0.0001067,15.69312871,360.1443699067959,361.5824725966904,1 44758U 19074AX  25360.55324987  .00085574  00000+0  71547-3 0  9993,2 44758  53.0378  89.8035 0001067 305.2762  54.8154 15.69312871338653
STARLINK-1060,44765,53.0448,0.0003799,15.81024807,324.9938721905464,330.0888466080187,1 44765U 19074BE  25360.91668980  .00155074  00000+0  76946-3 0  9996,2 44765  53.0448 131.5803 0003799 224.4457 115.3322 15.81024807  6031
STARLINK-1063,44768,53.0549,0.0001694,15.06398489,546.0430341093188,548.3893437697316,1 44768U 19074BH  25360.84130340 -.00000300  00000+0 -12638-5 0  9998,2 44768  53.0549 193.6487 0001694  89.6401 270.4782 15.06398489337223
STARLINK-1067,44771,53.0556,0.0001019,15.28000642,481.0908049823647,482.48885807063016,1 44771U 19074BL  25360.91668980  .01972005  00000+0  64379-1 0  9990,2 44771  53.0556 192.3949 0001019  74.8766 148.1117 15.28000642  5731
STARLINK-1068,44772,53.0548,0.0001275,15.40795147,442.89149769265805,444.63108175653724,1 44772U 19074BM  25360.91668980  .00143466  00000+0  33952-2 0  9995,2 44772  53.0548 170.6113 0001275  68.2575  37.9015 15.40795147  5832
STARLINK-1112,44925,53.0453,0.0009851,15.69120728,354.77441777700915,368.0526802686936,1 44925U 20001M   25360.91668980  .00144048  00000+0  11993-2 0  9995,2 44925  53.0453 249.2445 0009851  91.0109 126.1005 15.69120728  5998
STARLINK-1114,44927,53.0541,8.81e-05,15.0961016,536.7810608677983,537.9995767813743,1 44927U 20001P   25360.91668980  .01608951  00000+0  90840-1 0  9993,2 44927  53.0541 313.2851 0000881 131.0720 191.2389 15.09610160  5838
STARLINK-1123,44930,53.0565,0.0001287,15.06392192,546.3441929978226,548.126783876347,1 44930U 20001S   25360.60908589 -.00001806  00000+0 -10240-3 0  9990,2 44930  53.0565 314.6908 0001287  91.4246 268.6890 15.06392192328832
STARLINK-1144,44933,53.0373,0.0001933,15.79296703,331.1349898446688,333.7292958752987,1 44933U 20001V   25360.91668980  .00141422  00000+0  76105-3 0  9994,2 44933  53.0373 222.7012 0001933 152.7883   5.6013 15.79296703  5966
STARLINK-1094,44941,53.0545,0.0001348,15.06379264,546.3415659681405,548.2086570734064,1 44941U 20001AD  25360.82103279 -.00000128  00000+0  10312-4 0  9995,2 44941  53.0545 293.7399 0001348 107.3876 252.7260 15.06379264329142
STARLINK-1122,44949,53.0554,0.0001613,15.06401179,546.0908863358973,548.3250026149863,1 44949U 20001AM  25360.24601856 -.00001424  00000+0 -76701-4 0  9998,2 44949  53.0554 296.3187 0001613  84.4735 275.6438 15.06401179329050
STARLINK-1080,44961,53.0561,0.0001436,15.22513801,497.27371758165555,499.24861913560744,1 44961U 20001AZ  25360.91668980  .00844935  00000+0  33524-1 0  9990,2 44961  53.0561 272.7348 0001436  91.1643 255.2379 15.22513801  5788
STARLINK-1090,44968,53.0538,0.0001563,15.06386468,546.1705934177971,548.3354703417626,1 44968U 20001BG  25360.71229755 -.00001585  00000+0 -87539-4 0  9994,2 44968  53.0538 274.2252 0001563 100.5248 259.5917 15.06386468329410
STARLINK-1132,45044,53.0551,0.0001609,15.0639829,546.1025094207162,548.3310882731857,1 45044U 20006A   25360.67174642 -.00000111  00000+0  11479-4 0  9997,2 45044  53.0551 234.4155 0001609  88.1063 272.0110 15.06398290325730
STARLINK-1131,45047,53.0553,0.0001491,15.06394463,546.1959560975438,548.2611000980223,1 45047U 20006D   25360.11708181  .00000625  00000+0  60866-4 0  9993,2 45047  53.0553 257.4391 0001491  90.2100 269.9060 15.06394463325363
STARLINK-1134,45048,53.0351,0.0005422,15.33564396,461.47750823941897,468.8984098249939,1 45048U 20006E   25360.04341398  .00014690  00000+0  45674-3 0  9995,2 45048  53.0351 225.9440 0005422  46.8014 313.3439 15.33564396325801
STARLINK-1156,45054,53.0547,0.000164,15.06398418,546.0806485859966,548.3521645033443,1 45054U 20006L   25360.68465044  .00001035  00000+0  88346-4 0  9990,2 45054  53.0547 254.3525 0001640  89.5897 270.5280 15.06398418325455
STARLINK-1159,45057,53.051,0.0007439,15.58724749,386.31099149952206,396.38262951279285,1 45057U 20006P   25360.80902365  .00101929  00000+0  12884-2 0  9994,2 45057  53.0510 235.1449 0007439 109.9937 250.1876 15.58724749325748
STARLINK-1166,45060,53.0546,0.0001485,15.06395105,546.1981439601668,548.2549769376201,1 45060U 20006S   25360.44506277  .00001894  00000+0  14606-3 0  9995,2 45060  53.0546 255.4300 0001485  99.6272 260.4885 15.06395105325426
STARLINK-1169,45061,53.0554,0.0002025,15.06389653,545.8408806798434,548.6456596892685,1 45061U 20006T   25360.45245118  .00001944  00000+0  14942-3 0  9990,2 45061  53.0554 255.3948 0002025  86.5575 273.5646 15.06389653325426
STARLINK-1171,45062,53.0509,0.0014252,15.41904822,430.76994606413973,450.2057543371511,1 45062U 20006U   25360.84994145  .00075471  00000+0  17356-2 0  9992,2 45062  53.0509 238.9934 0014252 103.6448 256.6144 15.41904822325698
STARLINK-1133,45064,53.0532,0.0001392,15.063919,546.2723714079366,548.2003953578696,1 45064U 20006W   25360.84868230  .00001123  00000+0  94295-4 0  9991,2 45064  53.0532 233.6171 0001392  92.8253 267.2895 15.06391900325762
STARLINK-1167,45071,53.0536,0.0001625,15.06392841,546.1081266229467,548.3588720352282,1 45071U 20006AD  25360.80813441  .00001336  00000+0  10858-3 0  9997,2 45071  53.0536 233.7955 0001625  89.0467 271.0708 15.06392841325759
STARLINK-1168,45072,53.054,0.0001493,15.06399273,546.1798312171031,548.2477409618286,1 45072U 20006AE  25360.81181157 -.00000059  00000+0  14905-4 0  9991,2 45072  53.0540 233.7791 0001493  89.0168 271.0992 15.06399273325755
STARLINK-1172,45074,53.0571,0.0001349,15.06404089,546.2647979406729,548.1332536004256,1 45074U 20006AG  25360.35843980 -.00001263  00000+0 -65919-4 0  9991,2 45074  53.0571 235.8162 0001349  90.7169 269.3974 15.06404089325680
STARLINK-1153,45080,53.0538,0.0001471,15.06415516,546.1452922634699,548.182715818858,1 45080U 20006AN  25360.07092407  .00003626  00000+0  26206-3 0  9995,2 45080  53.0538 237.1059 0001471  89.1968 270.9190 15.06415516325646
STARLINK-1151,45081,53.0538,0.0001525,15.43534927,434.6471957753447,436.7254118830124,1 45081U 20006AP  25360.91668980  .00063781  00000+0  13969-2 0  9993,2 45081  53.0538 230.2433 0001525 101.7702  61.6873 15.43534927  5843
STARLINK-1185,45087,53.0554,0.0001843,15.06397626,545.9424908357232,548.4951769961035,1 45087U 20006AV  25360.82840086  .00001168  00000+0  97342-4 0  9998,2 45087  53.0554 213.7064 0001843 102.8608 257.2587 15.06397626326048
STARLINK-1183,45088,53.0538,0.0001427,15.06402328,546.2161767417019,548.1926691838162,1 45088U 20006AW  25360.85051014  .00001572  00000+0  12441-3 0  9992,2 45088  53.0538 213.6075 0001427 110.1880 249.9262 15.06402328326048
STARLINK-1142,45093,53.0093,0.0007005,16.43654353,151.5222055537797,160.67667080366846,1 45093U 20006BB  25360.81038878  .12910013  12526-4  48895-3 0  9992,2 45093  53.0093 116.9913 0007005 301.0957  58.9403 16.43654353327393
